IRIDIUM 106             
1 41917U 17003A   23361.77923838  .00000410  00000+0  13938-3 0  9996
2 41917  86.3974 105.6810 0001867  86.3097 273.8312 14.34217054363860
IRIDIUM 103             
1 41918U 17003B   23361.83632201  .00000041  00000+0  75600-5 0  9991
2 41918  86.3974 105.5595 0002344  95.1129 265.0334 14.34217132363892
IRIDIUM 109             
1 41919U 17003C   23361.84265562  .00000571  00000+0  19680-3 0  9997
2 41919  86.3975 105.6014 0002131 104.9323 255.2109 14.34215501363866
IRIDIUM 102             
1 41920U 17003D   23361.81094868  .00000601  00000+0  20758-3 0  9997
2 41920  86.3973 105.5574 0001995  96.0169 264.1254 14.34218221363943
IRIDIUM 105             
1 41921U 17003E   23361.71185726  .00000557  00000+0  19188-3 0  9996
2 41921  86.3966  74.0046 0002186  95.0813 265.0632 14.34229980365786
IRIDIUM 104             
1 41922U 17003F   23361.82363569  .00000519  00000+0  17825-3 0  9996
2 41922  86.3974 105.5809 0002258 101.4885 258.6564 14.34217452363932
IRIDIUM 114             
1 41923U 17003G   23361.82996038  .00000556  00000+0  19136-3 0  9998
2 41923  86.3973 105.5649 0001887  90.7119 269.4293 14.34213833363917
IRIDIUM 108             
1 41924U 17003H   23361.92803670  .00000102  00000+0  29520-4 0  9995
2 41924  86.3958  73.8502 0001991  88.3953 271.7471 14.34216840365783
